METEOR-M 1              
1 35865U 09049A   23008.87503940  .00000148  00000+0  85710-4 0  9995
2 35865  98.5581 338.0163 0002436  17.1108 343.0152 14.22396785690743
DMSP 5D-3 F18 (USA 210) 
1 35951U 09057A   23008.88718680  .00000308  00000+0  18635-3 0  9999
2 35951  98.7484 348.4762 0010352 218.3697 141.6740 14.13620801682157
GOES 15                 
1 36411U 10008A   23008.73191089  .00000067  00000+0  00000+0 0  9996
2 36411   0.0535 291.5622 0003064 267.5741  44.4064  1.00265455 47070
COMS 1                  
1 36744U 10032A   23008.86228953 -.00000333  00000+0  00000+0 0  9994
2 36744   1.5923  91.4020 0001134 191.5043 263.8239  1.00272355 38508
FENGYUN 3B              
1 37214U 10059A   23008.94291096  .00000025  00000+0  36980-4 0  9991
2 37214  99.0909  23.5594 0022936 133.9351 226.3723 14.14282938630006
SUOMI NPP               
1 37849U 11061A   23008.87793237  .00000125  00000+0  79968-4 0  9999
2 37849  98.7547 309.7604 0001363  81.4497 355.3558 14.19533024580344
FENGYUN 2F              
1 38049U 12002A   23008.85477171 -.00000348  00000+0  00000+0 0  9996
2 38049   4.2941  78.0888 0001298 268.9558 180.8625  1.00277994 40292
METEOSAT-10 (MSG-3)     
1 38552U 12035B   23008.83101748  .00000075  00000+0  00000+0 0  9999
2 38552   1.8650  50.9410 0001175 205.4948 160.4422  1.00277167 38270
METOP-B                 
1 38771U 12049A   23008.93416667  .00000166  00000+0  95804-4 0  9999
2 38771  98.7032  70.7923 0001495 117.8307 224.5758 14.21493929534921
FENGYUN 3C              
1 39260U 13052A   23008.90263177  .00000114  00000+0  78292-4 0  9996
2 39260  98.4385  31.4454 0011996  46.4843 313.7327 14.15974010480993
METEOR-M 2              
1 40069U 14037A   23008.89920782  .00000073  00000+0  52992-4 0  9992
2 40069  98.4254  22.2602 0006878  85.7553 274.4409 14.20734284441036
HIMAWARI-8              
1 40267U 14060A   23008.86697850 -.00000263  00000+0  00000+0 0  9992
2 40267   0.0398 116.5500 0001288 180.7197 263.6478  1.00270669 30179
FENGYUN 2G              
1 40367U 14090A   23008.85009922 -.00000293  00000+0  00000+0 0  9995
2 40367   2.4502  87.3887 0000936 242.4914 183.9939  1.00278736 29412
METEOSAT-11 (MSG-4)     
1 40732U 15034A   23008.82918701  .00000011  00000+0  00000+0 0  9998
2 40732   0.4647   1.4237 0000686  68.5580 336.8843  1.00276749 27435
ELEKTRO-L 2             
1 41105U 15074A   23007.60691845 -.00000106  00000+0  00000+0 0  9995
2 41105   3.5015  85.7462 0002478 162.6969  62.4658  1.00270659 25917
HIMAWARI-9              
1 41836U 16064A   23008.85716698 -.00000262  00000+0  00000+0 0  9991
2 41836   0.0501 201.9667 0001392 109.1811 246.3116  1.00272845 22609
GOES 16                 
1 41866U 16071A   23008.45553730 -.00000235  00000+0  00000+0 0  9994
2 41866   0.0754 247.7859 0001029  70.6524 238.0859  1.00270303 22523
FENGYUN 4A              
1 41882U 16077A   23008.87410384 -.00000318  00000+0  00000+0 0  9993
2 41882   0.0469  40.8628 0005233  12.4184 114.2332  1.00272925 22395
CYGFM05                 
1 41884U 16078A   23008.32238035  .00004908  00000+0  23843-3 0  9999
2 41884  34.9574   4.7166 0013830 131.6225 228.5674 15.17755914335918
CYGFM04                 
1 41885U 16078B   23008.62957082  .00005319  00000+0  25415-3 0  9997
2 41885  34.9505 350.8548 0012659 154.7607 205.3726 15.18320839336018
CYGFM02                 
1 41886U 16078C   23008.35211856  .00005340  00000+0  25486-3 0  9992
2 41886  34.9598 354.8633 0013220 145.2371 214.9207 15.18360491336050
CYGFM01                 
1 41887U 16078D   23008.35097613  .00005015  00000+0  24501-3 0  9992
2 41887  34.9539   7.2666 0014261 130.6242 229.5712 15.17550782335866
CYGFM08                 
1 41888U 16078E   23008.33619622  .00005363  00000+0  25819-3 0  9990
2 41888  34.9510 359.0178 0013681 144.6040 215.5582 15.18052108336005
CYGFM07                 
1 41890U 16078G   23008.32404384  .00005511  00000+0  26347-3 0  9991
2 41890  34.9529 352.5569 0012101 150.1875 209.9528 15.18301279335972
CYGFM03                 
1 41891U 16078H   23008.32254644  .00005489  00000+0  26245-3 0  9995
2 41891  34.9561 353.0869 0011579 148.0997 212.0418 15.18304471335966
FENGYUN 3D              
1 43010U 17072A   23008.93788539  .00000104  00000+0  71252-4 0  9995
2 43010  98.8411 317.7395 0002333  60.5901 299.5509 14.19125731266915
NOAA 20                 
1 43013U 17073A   23008.89712942  .00000093  00000+0  64962-4 0  9996
2 43013  98.7386 309.4139 0001204 113.0699 247.0604 14.19542521266370
GOES 17                 
1 43226U 18022A   23008.80138139  .00000111  00000+0  00000+0 0  9997
2 43226   0.0049 137.9374 0000545 170.8912 310.4058  1.00272934 17836
FENGYUN 2H              
1 43491U 18050A   23008.84496389 -.00000118  00000+0  00000+0 0  9998
2 43491   1.6688  93.5640 0002059  79.4208 318.6142  1.00274277 16850
METOP-C                 
1 43689U 18087A   23008.83337099  .00000161  00000+0  93635-4 0  9996
2 43689  98.7078  70.7490 0003739 149.2065 210.9332 14.21499614216489
GEO-KOMPSAT-2A          
1 43823U 18100A   23008.86228987 -.00000331  00000+0  00000+0 0  9999
2 43823   0.0398 139.1743 0000433 236.1715 171.4672  1.00270793 15031
METEOR-M2 2             
1 44387U 19038A   23008.92609298  .00000043  00000+0  38073-4 0  9996
2 44387  98.7524 333.3506 0002246  59.5311 300.6096 14.23738871182643
FENGYUN 3E              
1 49008U 21062A   23008.94763139  .00000042  00000+0  40314-4 0  9998
2 49008  98.7171  12.7270 0002823 105.6143 254.5347 14.19752121 78479
GOES 18                 
1 51850U 22021A   23007.79750510  .00000109  00000+0  00000+0 0  9990
2 51850   0.0091 273.9665 0000967   4.0073 339.2774  1.00272787  3209
NOAA 21 (JPSS-2)        
1 54234U 22150A   23008.84443565  .00000125  00000+0  79819-4 0  9995
2 54234  98.7026 309.4197 0001101  86.3112 273.8190 14.19553024  8449
METEOSAT-12             
1 54743U 22170C   23008.86715962 -.00000016  00000+0  00000+0 0  9998
2 54743   0.9423 298.5910 0000292 146.4059 331.9188  1.00272621   395
FALCON 9 R/B            
1 54698U 22168C   22345.32368031  .00002049 -64822-5  00000+0 0  9995
2 54698  29.0000  41.2312 0098300  59.8200  27.0300 16.15592824    07
2022-169A               
1 54699U 22169A   23008.89422452 -.00000058  00000+0  30984-4 0  9993
2 54699  59.9976  66.1675 0004470 282.0178  78.0352 14.28667046  3938
2022-169B               
1 54700U 22169B   23008.90004613 -.00000137  00000+0 -31209-6 0  9995
2 54700  59.9975  66.1917 0006494 276.0644  83.9643 14.28674107  3932
2022-169C               
1 54701U 22169C   23008.84984866  .00000213  00000+0  91585-4 0  9990
2 54701  59.9584  63.1142 0095918  62.5394 298.5363 14.49508601  3981
2022-169D               
1 54702U 22169D   23008.89138638  .00000559  00000+0  27301-3 0  9991
2 54702  59.9994  66.1612 0006206 286.6777  73.3573 14.29165117  3945
SZ-14 MODULE            
1 54704U 22060G   23008.83118154  .00029393  00000+0  33286-3 0  9994
2 54704  41.4887  46.8904 0009077 312.3050 216.2822 15.61712469  5271
GALAXY 35 (G-35)        
1 54741U 22170A   23008.01023729  .00000145  00000+0  00000+0 0  9998
2 54741   0.0275 150.8729 0002420 215.5093 314.5576  1.00274535   291
GALAXY 36 (G-36)        
1 54742U 22170B   23008.51236888  .00000145  00000+0  00000+0 0  9996
2 54742   0.0293  90.7959 0002201 177.1100 234.3609  1.00271404   184
METEOSAT-12 (MTG-1)     
1 54743U 22170C   23008.86715962 -.00000016  00000+0  00000+0 0  9998
2 54743   0.9423 298.5910 0000292 146.4059 331.9188  1.00272621   395
ARIANE 5 DEB [SYLDA]    
1 54744U 22170D   23007.47620034  .00026142  00000+0  62449-2 0  9995
2 54744   5.9626 208.6790 7274055 198.3833 106.0163  2.29380684   561
ARIANE 5 R/B            
1 54745U 22170E   23004.35084373  .00005853  00000+0  10267-2 0  9997
2 54745   5.7240 211.9332 7276227 193.7260 122.7793  2.29791296   498
2022-171A               
1 54746U 22171A   23008.61047538 -.00000037  00000+0  00000+0 0  9995
2 54746  34.9929 179.0633 0006549 131.1919 294.4916 15.22580137  3790
2022-171B               
1 54747U 22171B   23008.86839503  .00029015  00000+0  11504-2 0  9994
2 54747  34.9926 177.1722 0005959 129.7465  17.5916 15.24435951  3800
2022-171C               
1 54748U 22171C   23009.18333333 -.00000037  00000+0  00000+0 0  9991
2 54748  34.9967 175.4665 0007010 187.2699 147.5726 15.22421535  3849
2022-171D               
1 54749U 22171D   23008.86200789  .00031770  00000+0  12416-2 0  9998
2 54749  34.9932 177.1190 0006274 146.2566   0.9165 15.24898868  3807
2022-171E               
1 54750U 22171E   23008.83027778 -.00000038  00000+0  00000+0 0  9999
2 54750  34.9957 177.6357 0012000 130.2626  81.8871 15.22502938  3787
SHIYAN 21               
1 54752U 22172A   23008.62858796  .00010142  00000+0  36395-3 0  9997
2 54752  36.0032   8.6827 0012545 152.9382 158.0424 15.27971069  3573
SWOT                    
1 54754U 22173A   23008.02852129  .00134594  00000+0  76186-1 0  9996
2 54754  77.6006 295.1360 0003870 174.6255 184.9932 14.09115451  3175
O3B MPOWER-A F1         
1 54755U 22174A   22356.18260191  .00000047  00000+0  00000+0 0  9997
2 54755   9.6319 253.0871 1859317 195.2651 337.7567  7.25479946   387
O3B MPOWER-A F2         
1 54756U 22174B   23008.84945703  .00000049  00000+0  00000+0 0  9997
2 54756   9.6138 227.5997 1870850 245.4543  93.9618  7.26306049  1669
FALCON 9 R/B            
1 54757U 22174C   23008.84948500  .00000052  00000+0  19909-2 0  9991
2 54757   9.6179 227.6483 1869347 245.4095  94.0244  7.26306178  1656
STARLINK-5464           
1 54758U 22175A   23008.89643839  .00053730  00000+0  38368-3 0  9997
2 54758  53.2156 196.8760 0001375 351.1904   8.9092 15.73268043  5371
STARLINK-5215           
1 54759U 22175B   23008.89613377  .00052965  00000+0  37855-3 0  9991
2 54759  53.2141 196.8724 0001706  26.8812 333.2296 15.73253387  5373
